GSAT0101 (PRN E11)      
1 37846U 11060A   22200.51392790 -.00000090  00000+0  00000+0 0  9996
2 37846  57.0092  20.4642 0003367  57.6405 302.4150  1.70475049 66764
GSAT0102 (PRN E12)      
1 37847U 11060B   22200.43451998 -.00000090  00000+0  00000+0 0  9994
2 37847  57.0097  20.4660 0002512  17.8069 340.2121  1.70475407 66761
GSAT0103 (PRN E19)      
1 38857U 12055A   22202.31309137 -.00000005  00000+0  00000+0 0  9993
2 38857  55.1473 140.7686 0004376 271.1590  88.7610  1.70473744 60682
GSAT0104 (PRN E20)      
1 38858U 12055B   22202.28315850 -.00000005  00000+0  00000+0 0  9999
2 38858  55.1475 140.7708 0001912 274.7898  85.1586  1.70474031 60686
GSAT0201 (PRN E18)      
1 40128U 14050A   22199.47139269 -.00000119  00000+0  00000+0 0  9999
2 40128  50.2636 331.0471 1625743 125.1817 251.1657  1.85518932 51792
GSAT0202 (PRN E14)      
1 40129U 14050B   22199.73223647 -.00000120  00000+0  00000+0 0  9995
2 40129  50.2879 330.0984 1622842 125.9980 250.1780  1.85520922 53965
GSAT0203 (PRN E26)      
1 40544U 15017A   22202.64075499 -.00000089  00000+0  00000+0 0  9999
2 40544  56.8056  20.4348 0001399 210.3146 149.7028  1.70476019 44889
GSAT0204 (PRN E22)      
1 40545U 15017B   22199.96061082 -.00000091  00000+0  00000+0 0  9996
2 40545  56.8101  20.5206 0001959 180.2830 179.7395  1.70475592  7886
GSAT0205 (PRN E24)      
1 40889U 15045A   22203.24730348  .00000011  00000+0  00000+0 0  9994
2 40889  55.6004 261.0027 0003202 358.7903   1.2870  1.70473912 42706
GSAT0206 (PRN E30)      
1 40890U 15045B   22202.29490389  .00000005  00000+0  00000+0 0  9991
2 40890  55.6000 261.0250 0002044 322.4717  37.5892  1.70473863 42718
GSAT0209 (PRN E09)      
1 41174U 15079A   22203.05562808 -.00000010  00000+0  00000+0 0  9992
2 41174  55.1639 140.4520 0004643 312.4580  47.4714  1.70474072 41042
GSAT0208 (PRN E08)      
1 41175U 15079B   22202.10192866 -.00000005  00000+0  00000+0 0  9995
2 41175  55.1621 140.4768 0003974 312.3999  47.5373  1.70474061 40866
GSAT0211 (PRN E02)      
1 41549U 16030A   22202.80794889  .00000009  00000+0  00000+0 0  9991
2 41549  55.7454 260.9474 0003743 302.1385  57.9019  1.70475384 38333
GSAT0210 (PRN E01)      
1 41550U 16030B   22200.75423789 -.00000003  00000+0  00000+0 0  9998
2 41550  55.7461 261.0054 0003924 270.4088  89.6208  1.70475424 38312
GSAT0207 (PRN E07)      
1 41859U 16069A   22202.17576607 -.00000005  00000+0  00000+0 0  9990
2 41859  54.8242 140.6491 0004785 299.2093  60.7132  1.70472697 35074
GSAT0212 (PRN E03)      
1 41860U 16069B   22202.61575330 -.00000008  00000+0  00000+0 0  9996
2 41860  54.8218 140.6344 0003540 321.9471  37.9973  1.70472747 35331
GSAT0213 (PRN E04)      
1 41861U 16069C   22202.98113191 -.00000010  00000+0  00000+0 0  9993
2 41861  54.8244 140.6295 0004378 278.9637  80.9554  1.70473063 35202
GSAT0214 (PRN E05)      
1 41862U 16069D   22200.19530377  .00000005  00000+0  00000+0 0  9997
2 41862  54.8222 140.7013 0003637 283.7499  76.1805  1.70472778 35281
GSAT0215 (PRN E21)      
1 43055U 17079A   22202.44558063  .00000006  00000+0  00000+0 0  9998
2 43055  55.7213 260.7893 0003480 263.4398  96.5963  1.70474581 28664
GSAT0216 (PRN E25)      
1 43056U 17079B   22202.73777937  .00000008  00000+0  00000+0 0  9996
2 43056  55.7215 260.7810 0005203 269.7789  90.2380  1.70474707 28657
GSAT0217 (PRN E27)      
1 43057U 17079C   22202.37144174  .00000006  00000+0  00000+0 0  9996
2 43057  55.7198 260.7908 0004542 280.3927  79.6317  1.70474676 28661
GSAT0218 (PRN E31)      
1 43058U 17079D   22201.41830920  .00000000  00000+0  00000+0 0  9996
2 43058  55.7205 260.8145 0005629 267.1541  92.8558  1.70474629 28670
GSAT0221 (PRN E15)      
1 43564U 18060A   22201.90359017 -.00000089  00000+0  00000+0 0  9994
2 43564  57.1861  20.2793 0001305 277.0341  82.9754  1.70475913 24837
GSAT0222 (PRN E33)      
1 43565U 18060B   22202.71004520 -.00000088  00000+0  00000+0 0  9990
2 43565  57.1895  20.2580 0001033 306.2948  53.7210  1.70475923 24895
GSAT0219 (PRN E36)      
1 43566U 18060C   22201.75742159 -.00000089  00000+0  00000+0 0  9992
2 43566  57.1897  20.2857 0000719 317.8656  42.1530  1.70475904 24851
GSAT0220 (PRN E13)      
1 43567U 18060D   22201.97756075 -.00000089  00000+0  00000+0 0  9999
2 43567  57.1897  20.2793 0000801 296.2420  63.7743  1.70475830 24833
GSAT0223                
1 49809U 21116A   22202.41438377 -.00000088  00000+0  00000+0 0  9991
2 49809  57.1824  20.1657 0002793 140.4735 217.6493  1.70475990  3855
GSAT0224                
1 49810U 21116B   22202.53048507 -.00000088  00000+0  00000+0 0  9998
2 49810  57.1832  20.1606 0002551 121.9970  59.8606  1.70476027  3884
